{"type": "FeatureCollection", "features": [ {"type": "Feature", "properties": {"norad_id": 30771, "name": "FENGYUN 1C DEB", "group": "fengyun-1c-debris", "lat": -7.682383192920831, "lon": -30.643838165171886, "alt_km": 746.0145932622445, "timestamp": "2025-12-18T15:47:11.502078+00:00", "meta": {"OBJECT_NAME": "FENGYUN 1C DEB", "OBJECT_ID": "1999-025AUH", "EPOCH": "2025-12-17T21:31:12.090144", "MEAN_MOTION": 14.43254321, "ECCENTRICITY": 0.00227066, "INCLINATION": 98.9051, "RA_OF_ASC_NODE": 327.3491, "ARG_OF_PERICENTER": 284.7455, "MEAN_ANOMALY": 75.1218, "EPHEMERIS_TYPE": 0, "CLASSIFICATION_TYPE": "U", "NORAD_CAT_ID": 30771, "ELEMENT_SET_NO": 999, "REV_AT_EPOCH": 97138, "BSTAR": 0.0019231322, "MEAN_MOTION_DOT": 6.451e-05, "MEAN_MOTION_DDOT": 0}, "tle": {"line1": "1 30771U 99025AUH 25351.89666771  .00006451  00000+0  19231-2 0  9992", "line2": "2 30771  98.9051 327.3491 0022706 284.7455  75.1218 14.43254321971384"}}, "geometry": {"type": "Point", "coordinates": [-30.643838165171886, -7.682383192920831]}}, {"type": "Feature", "properties": {"norad_id": 30802, "name": "FENGYUN 1C DEB", "group": "fengyun-1c-debris", "lat": -69.52915218046523, "lon": -125.06875685496243, "alt_km": 799.1835953148966, "timestamp": "2025-12-18T15:47:11.502088+00:00", "meta": {"OBJECT_NAME": "FENGYUN 1C DEB", "OBJECT_ID": "1999-025AUL", "EPOCH": "2025-12-18T04:51:14.748192", "MEAN_MOTION": 14.3249918, "ECCENTRICITY": 0.00177566, "INCLINATION": 98.8375, "RA_OF_ASC_NODE": 79.0973, "ARG_OF_PERICENTER": 25.1342, "MEAN_ANOMALY": 38.665, "EPHEMERIS_TYPE": 0, "CLASSIFICATION_TYPE": "U", "NORAD_CAT_ID": 30802, "ELEMENT_SET_NO": 999, "REV_AT_EPOCH": 97281, "BSTAR": 0.001291155, "MEAN_MOTION_DOT": 3.46e-05, "MEAN_MOTION_DDOT": 0}, "tle": {"line1": "1 30802U 99025AUL 25352.20225403  .00003460  00000+0  12912-2 0  9992", "line2": "2 30802  98.8375  79.0973 0017756  25.1342  38.6650 14.32499180972819"}}, "geometry": {"type": "Point", "coordinates": [-125.06875685496243, -69.52915218046523]}}, {"type": "Feature", "properties": {"norad_id": 30803, "name": "FENGYUN 1C DEB", "group": "fengyun-1c-debris", "lat": 55.52030173806546, "lon": -140.26628423040293, "alt_km": 812.1885201809337, "timestamp": "2025-12-18T15:47:11.502099+00:00", "meta": {"OBJECT_NAME": "FENGYUN 1C DEB", "OBJECT_ID": "1999-025AUM", "EPOCH": "2025-12-18T07:19:33.051360", "MEAN_MOTION": 14.11272906, "ECCENTRICITY": 0.0107581, "INCLINATION": 99.2457, "RA_OF_ASC_NODE": 25.6506, "ARG_OF_PERICENTER": 186.0442, "MEAN_ANOMALY": 308.2774, "EPHEMERIS_TYPE": 0, "CLASSIFICATION_TYPE": "U", "NORAD_CAT_ID": 30803, "ELEMENT_SET_NO": 999, "REV_AT_EPOCH": 96077, "BSTAR": 0.00096665595, "MEAN_MOTION_DOT": 1.796e-05, "MEAN_MOTION_DDOT": 0}, "tle": {"line1": "1 30803U 99025AUM 25352.30524365  .00001796  00000+0  96666-3 0  9992", "line2": "2 30803  99.2457  25.6506 0107581 186.0442 308.2774 14.11272906960776"}}, "geometry": {"type": "Point", "coordinates": [-140.26628423040293, 55.52030173806546]}}, {"type": "Feature", "properties": {"norad_id": 30804, "name": "FENGYUN 1C DEB", "group": "fengyun-1c-debris", "lat": -4.877086115789563, "lon": 59.23515131379136, "alt_km": 845.6675446148356, "timestamp": "2025-12-18T15:47:11.502110+00:00", "meta": {"OBJECT_NAME": "FENGYUN 1C DEB", "OBJECT_ID": "1999-025AUN", "EPOCH": "2025-12-17T15:45:24.806304", "MEAN_MOTION": 14.54633667, "ECCENTRICITY": 0.01857492, "INCLINATION": 98.8953, "RA_OF_ASC_NODE": 57.4045, "ARG_OF_PERICENTER": 175.6412, "MEAN_ANOMALY": 339.5186, "EPHEMERIS_TYPE": 0, "CLASSIFICATION_TYPE": "U", "NORAD_CAT_ID": 30804, "ELEMENT_SET_NO": 999, "REV_AT_EPOCH": 99548, "BSTAR": 0.00038040881, "MEAN_MOTION_DOT": 1.986e-05, "MEAN_MOTION_DDOT": 0}, "tle": {"line1": "1 30804U 99025AUN 25351.65653711  .00001986  00000+0  38041-3 0  9992", "line2": "2 30804  98.8953  57.4045 0185749 175.6412 339.5186 14.54633667995489"}}, "geometry": {"type": "Point", "coordinates": [59.23515131379136, -4.877086115789563]}}, {"type": "Feature", "properties": {"norad_id": 30805, "name": "FENGYUN 1C DEB", "group": "fengyun-1c-debris", "lat": 55.54150678691069, "lon": -131.79017656315375, "alt_km": 919.5062755229146, "timestamp": "2025-12-18T15:47:11.502120+00:00", "meta": {"OBJECT_NAME": "FENGYUN 1C DEB", "OBJECT_ID": "1999-025AUP", "EPOCH": "2025-12-18T01:38:36.125952", "MEAN_MOTION": 14.02908908, "ECCENTRICITY": 0.00702236, "INCLINATION": 98.8201, "RA_OF_ASC_NODE": 34.5618, "ARG_OF_PERICENTER": 268.9779, "MEAN_ANOMALY": 120.2925, "EPHEMERIS_TYPE": 0, "CLASSIFICATION_TYPE": "U", "NORAD_CAT_ID": 30805, "ELEMENT_SET_NO": 999, "REV_AT_EPOCH": 96035, "BSTAR": 0.00080153842, "MEAN_MOTION_DOT": 1.226e-05, "MEAN_MOTION_DDOT": 0}, "tle": {"line1": "1 30805U 99025AUP 25352.06847368  .00001226  00000+0  80154-3 0  9991", "line2": "2 30805  98.8201  34.5618 0070223 268.9779 120.2925 14.02908908960350"}}, "geometry": {"type": "Point", "coordinates": [-131.79017656315375, 55.54150678691069]}}, {"type": "Feature", "properties": {"norad_id": 30806, "name": "FENGYUN 1C DEB", "group": "fengyun-1c-debris", "lat": 9.913112536067997, "lon": -159.56389840233834, "alt_km": 882.4883082645129, "timestamp": "2025-12-18T15:47:11.502130+00:00", "meta": {"OBJECT_NAME": "FENGYUN 1C DEB", "OBJECT_ID": "1999-025AUQ", "EPOCH": "2025-12-17T07:31:36.290208", "MEAN_MOTION": 13.70425625, "ECCENTRICITY": 0.02682705, "INCLINATION": 99.0358, "RA_OF_ASC_NODE": 17.578, "ARG_OF_PERICENTER": 118.3733, "MEAN_ANOMALY": 261.0703, "EPHEMERIS_TYPE": 0, "CLASSIFICATION_TYPE": "U", "NORAD_CAT_ID": 30806, "ELEMENT_SET_NO": 999, "REV_AT_EPOCH": 93758, "BSTAR": 0.00068159816, "MEAN_MOTION_DOT": 7.39e-06, "MEAN_MOTION_DDOT": 0}, "tle": {"line1": "1 30806U 99025AUQ 25351.31361447  .00000739  00000+0  68160-3 0  9999", "line2": "2 30806  99.0358  17.5780 0268270 118.3733 261.0703 13.70425625937588"}}, "geometry": {"type": "Point", "coordinates": [-159.56389840233834, 9.913112536067997]}}, {"type": "Feature", "properties": {"norad_id": 30809, "name": "FENGYUN 1C DEB", "group": "fengyun-1c-debris", "lat": 29.956395583993515, "lon": -93.13462707539038, "alt_km": 755.1797122874777, "timestamp": "2025-12-18T15:47:11.502140+00:00", "meta": {"OBJECT_NAME": "FENGYUN 1C DEB", "OBJECT_ID": "1999-025AUT", "EPOCH": "2025-12-18T05:00:33.309504", "MEAN_MOTION": 14.29277373, "ECCENTRICITY": 0.00523497, "INCLINATION": 98.7897, "RA_OF_ASC_NODE": 81.2966, "ARG_OF_PERICENTER": 156.3673, "MEAN_ANOMALY": 203.993, "EPHEMERIS_TYPE": 0, "CLASSIFICATION_TYPE": "U", "NORAD_CAT_ID": 30809, "ELEMENT_SET_NO": 999, "REV_AT_EPOCH": 97165, "BSTAR": 0.0014549253, "MEAN_MOTION_DOT": 3.712e-05, "MEAN_MOTION_DDOT": 0}, "tle": {"line1": "1 30809U 99025AUT 25352.20871886  .00003712  00000+0  14549-2 0  9999", "line2": "2 30809  98.7897  81.2966 0052349 156.3673 203.9930 14.29277373971655"}}, "geometry": {"type": "Point", "coordinates": [-93.13462707539038, 29.956395583993515]}}, {"type": "Feature", "properties": {"norad_id": 30810, "name": "FENGYUN 1C DEB", "group": "fengyun-1c-debris", "lat": 2.2139248003761787, "lon": 163.99283197848382, "alt_km": 775.3899731984538, "timestamp": "2025-12-18T15:47:11.502150+00:00", "meta": {"OBJECT_NAME": "FENGYUN 1C DEB", "OBJECT_ID": "1999-025AUU", "EPOCH": "2025-12-18T03:48:20.177568", "MEAN_MOTION": 14.04196532, "ECCENTRICITY": 0.01798534, "INCLINATION": 98.6619, "RA_OF_ASC_NODE": 163.8542, "ARG_OF_PERICENTER": 39.6978, "MEAN_ANOMALY": 321.7196, "EPHEMERIS_TYPE": 0, "CLASSIFICATION_TYPE": "U", "NORAD_CAT_ID": 30810, "ELEMENT_SET_NO": 999, "REV_AT_EPOCH": 94459, "BSTAR": 0.0023791664, "MEAN_MOTION_DOT": 4.321e-05, "MEAN_MOTION_DDOT": 0}, "tle": {"line1": "1 30810U 99025AUU 25352.15856687  .00004321  00000+0  23792-2 0  9994", "line2": "2 30810  98.6619 163.8542 0179853  39.6978 321.7196 14.04196532944592"}}, "geometry": {"type": "Point", "coordinates": [163.99283197848382, 2.2139248003761787]}}, {"type": "Feature", "properties": {"norad_id": 30811, "name": "FENGYUN 1C DEB", "group": "fengyun-1c-debris", "lat": 66.7158085096246, "lon": -127.51489403458568, "alt_km": 984.2466411275827, "timestamp": "2025-12-18T15:47:11.502160+00:00", "meta": {"OBJECT_NAME": "FENGYUN 1C DEB", "OBJECT_ID": "1999-025AUV", "EPOCH": "2025-12-17T14:34:44.155200", "MEAN_MOTION": 13.61857756, "ECCENTRICITY": 0.02781138, "INCLINATION": 98.7814, "RA_OF_ASC_NODE": 30.4887, "ARG_OF_PERICENTER": 33.4511, "MEAN_ANOMALY": 328.3862, "EPHEMERIS_TYPE": 0, "CLASSIFICATION_TYPE": "U", "NORAD_CAT_ID": 30811, "ELEMENT_SET_NO": 999, "REV_AT_EPOCH": 92933, "BSTAR": 0.0014274331, "MEAN_MOTION_DOT": 1.384e-05, "MEAN_MOTION_DDOT": 0}, "tle": {"line1": "1 30811U 99025AUV 25351.60745550  .00001384  00000+0  14274-2 0  9991", "line2": "2 30811  98.7814  30.4887 0278113  33.4511 328.3862 13.61857756929338"}}, "geometry": {"type": "Point", "coordinates": [-127.51489403458568, 66.7158085096246]}}, {"type": "Feature", "properties": {"norad_id": 30814, "name": "FENGYUN 1C DEB", "group": "fengyun-1c-debris", "lat": 76.4693213012855, "lon": -168.72382842018126, "alt_km": 692.6569236596861, "timestamp": "2025-12-18T15:47:11.502170+00:00", "meta": {"OBJECT_NAME": "FENGYUN 1C DEB", "OBJECT_ID": "1999-025AUY", "EPOCH": "2025-12-18T04:24:35.886816", "MEAN_MOTION": 14.60567684, "ECCENTRICITY": 0.00303568, "INCLINATION": 99.0813, "RA_OF_ASC_NODE": 329.1014, "ARG_OF_PERICENTER": 215.2843, "MEAN_ANOMALY": 274.0807, "EPHEMERIS_TYPE": 0, "CLASSIFICATION_TYPE": "U", "NORAD_CAT_ID": 30814, "ELEMENT_SET_NO": 999, "REV_AT_EPOCH": 97821, "BSTAR": 0.002229715, "MEAN_MOTION_DOT": 0.00010863, "MEAN_MOTION_DDOT": 0}, "tle": {"line1": "1 30814U 99025AUY 25352.18374869  .00010863  00000+0  22297-2 0  9995", "line2": "2 30814  99.0813 329.1014 0030356 215.2843 274.0807 14.60567684978212"}}, "geometry": {"type": "Point", "coordinates": [-168.72382842018126, 76.4693213012855]}}]}